AFOTEC-1 (FALCON ODE)   
1 44225U 19026A   20354.42015481  .00001558  00000-0  76155-4 0  9991
2 44225  40.0199 357.2218 0006587 321.1417  38.8910 15.21287759 90426
SPARC-1                 
1 44226U 19026B   20354.43545790  .00002415  00000-0  10818-3 0  9990
2 44226  40.0194 350.1769 0010532 326.3675  33.6457 15.22993279 90547
ELECTRON KICK STAGE R/B 
1 44227U 19026C   20354.41695695  .00002177  00000-0  99588-4 0  9996
2 44227  40.0253 352.0810 0009098 327.5997  32.4245 15.22542435 90521
HARBINGER (ICEYE-X3)    
1 44229U 19026E   20354.45792438  .00001378  00000-0  67953-4 0  9998
2 44229  40.0201 355.7214 0007545 320.1255  39.8990 15.21480642 90444
